[{"OBJECT_NAME":"STARLINK-1995","OBJECT_ID":"2021-009AU","EPOCH":"2026-03-09T22:00:01.999584","MEAN_MOTION":15.56337819,"ECCENTRICITY":0.00072287,"INCLINATION":53.0479,"RA_OF_ASC_NODE":18.2943,"ARG_OF_PERICENTER":82.4269,"MEAN_ANOMALY":357.8664,"EPHEMERIS_TYPE":0,"CLASSIFICATION_TYPE":"U","NORAD_CAT_ID":47590,"ELEMENT_SET_NO":999,"REV_AT_EPOCH":586,"BSTAR":0.0018767975,"MEAN_MOTION_DOT":0.00136547,"MEAN_MOTION_DDOT":0},{"OBJECT_NAME":"DUPLEX","OBJECT_ID":"1998-067XS","EPOCH":"2026-03-09T06:21:42.121440","MEAN_MOTION":15.5617383,"ECCENTRICITY":0.00023526,"INCLINATION":51.6292,"RA_OF_ASC_NODE":71.5742,"ARG_OF_PERICENTER":105.0459,"MEAN_ANOMALY":255.0793,"EPHEMERIS_TYPE":0,"CLASSIFICATION_TYPE":"U","NORAD_CAT_ID":66906,"ELEMENT_SET_NO":999,"REV_AT_EPOCH":1506,"BSTAR":0.00046193686,"MEAN_MOTION_DOT":0.00032613,"MEAN_MOTION_DDOT":0}]
